INMARSAT 4-F3           
1 33278U 08039A   26157.61323703 -.00000128  00000+0  00000+0 0  9999
2 33278   4.2844  31.5915 0002754  48.5507 297.6369  1.00270385 46433
NIMIQ 4                 
1 33373U 08044A   26157.90161272 -.00000206  00000+0  00000+0 0  9991
2 33373   0.0098  46.2037 0002046  22.4806  69.2121  1.00270820 64881
GALAXY 19 (G-19)        
1 33376U 08045A   26157.61341036 -.00000127  00000+0  00000+0 0  9993
2 33376   0.0147  61.0528 0003082  21.4185 296.4012  1.00280536 64797
ASTRA 1M                
1 33436U 08057A   26157.92166317  .00000135  00000+0  00000+0 0  9992
2 33436   0.2691  82.3105 0005066  19.8207 144.4034  1.00273972 45631
EUTELSAT HOTBIRD 13C    
1 33459U 08065A   26157.90785274 -.00000269  00000+0  00000+0 0  9992
2 33459   2.9231  79.3131 0003777 357.8241  94.7113  1.00271902 47245
EXPRESS-AM44            
1 33595U 09007A   26157.91568315 -.00000075  00000+0  00000+0 0  9991
2 33595   3.4368  78.5178 0004428 351.8246 143.6366  1.00272108 52180
NSS-9                   
1 33749U 09008A   26157.81147814  .00000085  00000+0  00000+0 0  9999
2 33749   1.2341  82.7601 0002275 342.8992 304.7643  1.00271213 63414
TELSTAR 11N             
1 34111U 09009A   26157.91036609 -.00000237  00000+0  00000+0 0  9994
2 34111   0.0183   0.4897 0002595  64.7848 120.2235  1.00271676 46140
WGS F2 (USA 204)        
1 34713U 09017A   26157.91977044  .00000082  00000+0  00000+0 0  9995
2 34713   0.0159 334.1635 0000511 247.8660  61.9417  1.00271599 45517
SES-7 (PROTOSTAR 2)     
1 34941U 09027A   26157.93924356 -.00000331  00000+0  00000+0 0  9997
2 34941   0.0595  79.0148 0000495 322.4950 300.2315  1.00273201 62529
MEASAT-3A               
1 35362U 09032A   26157.87818407 -.00000097  00000+0  00000+0 0  9992
2 35362   0.0223 354.5870 0003168  78.6574 298.1959  1.00272124  7925
GOES 14                 
1 35491U 09033A   26157.63447317 -.00000234  00000+0  00000+0 0  9991
2 35491   1.6621  83.1711 0002046   2.3886 185.7647  1.00114764  6480
FM-5                    
1 35493U 09034A   26157.90074604 -.00000187  00000+0  00000+0 0  9996
2 35493   0.0158 291.7916 0000563  21.6762 179.9617  1.00272602 46542
TERRESTAR-1             
1 35496U 09035A   26157.68200084 -.00000044  00000+0  00000+0 0  9990
2 35496   5.1760  48.8051 0002780  22.2788 318.5272  1.00273426 62023
ASIASAT 5               
1 35696U 09042A   26157.93777023 -.00000293  00000+0  00000+0 0  9996
2 35696   0.0100  41.7949 0001497  14.4077 277.2515  1.00272387 61602
JCSAT-12 (JCSAT-RA)     
1 35755U 09044A   26157.94401025 -.00000314  00000+0  00000+0 0  9995
2 35755   0.0100 334.6838 0000235 103.4604 289.0956  1.00272306 61503
OPTUS D3                
1 35756U 09044B   26157.87740407 -.00000132  00000+0  00000+0 0  9996
2 35756   0.8658 269.7342 0003237 169.8474 287.7210  1.00270950 61460
NIMIQ 5                 
1 35873U 09050A   26157.90343272 -.00000243  00000+0  00000+0 0  9999
2 35873   0.0231  65.7265 0002921   9.9124  72.2162  1.00271980 61245
AMAZONAS 2              
1 35942U 09054A   26157.90360605 -.00000240  00000+0  00000+0 0  9996
2 35942   1.7880  83.1753 0006150  31.0781  34.3748  1.00205257 61084
COMSATBW-1              
1 35943U 09054B   26157.90411356  .00000038  00000+0  00000+0 0  9991
2 35943   0.0557  74.8973 0003068   5.5427 203.3610  1.00271685 61205
NSS-12                  
1 36032U 09058A   26157.91976984  .00000085  00000+0  00000+0 0  9991
2 36032   0.0641  63.1093 0004975 344.2381 236.1059  1.00270391 60813
THOR 6                  
1 36033U 09058B   26157.91767649  .00000004  00000+0  00000+0 0  9999
2 36033   0.0387 114.4781 0002207 346.6684 123.6979  1.00271899 60908
INTELSAT 14 (IS-14)     
1 36097U 09064A   26157.90889274 -.00000260  00000+0  00000+0 0  9999
2 36097   0.0149 327.4978 0002839 123.4083  86.6298  1.00271694 60504
EUTELSAT 36B            
1 36101U 09065A   26157.92780352  .00000126  00000+0  00000+0 0  9995
2 36101   0.4644  80.9900 0006150 353.8188 205.0334  1.00270413 60602
INTELSAT 15 (IS-15)     
1 36106U 09067A   26157.93465021 -.00000171  00000+0  00000+0 0  9997
2 36106   0.0155 330.3465 0002376 108.1154 238.5127  1.00271975 41129
WGS F3 (USA 211)        
1 36108U 09068A   26157.67818749  .00000078  00000+0  00000+0 0  9995
2 36108   0.3361  85.8736 0000534 327.7805 315.6122  1.00269883 46483
DIRECTV 12              
1 36131U 09075A   26157.89745270 -.00000090  00000+0  00000+0 0  9996
2 36131   0.0416 138.1445 0000289 275.7524  61.7810  1.00271396 46455
BEIDOU-2 G1             
1 36287U 10001A   26156.59103902 -.00000269  00000+0  00000+0 0  9993
2 36287   4.2662  60.4432 0002583 313.7615 233.0101  1.00269061 60057
SDO                     
1 36395U 10005A   26157.34396931 -.00000062  00000+0  00000+0 0  9998
2 36395  34.6287  86.5080 0001398  50.1694 139.9279  1.00271136 59950
INTELSAT 16 (IS-16)     
1 36397U 10006A   26157.90273939 -.00000231  00000+0  00000+0 0  9993
2 36397   0.0209  45.6090 0002204  43.7927  54.7170  1.00271191 59555
EWS-G2 (GOES 15)        
1 36411U 10008A   26157.93040353  .00000033  00000+0  00000+0 0  9996
2 36411   1.2487  83.0327 0005467  36.8430 173.9937  1.00275973 59533
ECHOSTAR 14             
1 36499U 10010A   26157.60907700  .00000014  00000+0  00000+0 0  9996
2 36499   0.0431  89.1333 0002539   1.9929 264.2678  1.00271975 46442
