OBJECT_NAME,OBJECT_ID,EPOCH,MEAN_MOTION,ECCENTRICITY,INCLINATION,RA_OF_ASC_NODE,ARG_OF_PERICENTER,MEAN_ANOMALY,EPHEMERIS_TYPE,CLASSIFICATION_TYPE,NORAD_CAT_ID,ELEMENT_SET_NO,REV_AT_EPOCH,BSTAR,MEAN_MOTION_DOT,MEAN_MOTION_DDOT
INMARSAT 4-F3,2008-039A,2026-06-06T14:43:03.679392,1.00270385,.00027541,4.2844,31.5915,48.5507,297.6369,0,U,33278,999,4643,0,-.128E-5,0
NIMIQ 4,2008-044A,2026-06-06T21:38:19.339008,1.00270820,.00020464,0.0098,46.2037,22.4806,69.2121,0,U,33373,999,6488,0,-.206E-5,0
GALAXY 19 (G-19),2008-045A,2026-06-06T14:43:18.655104,1.00280536,.00030827,0.0147,61.0528,21.4185,296.4012,0,U,33376,999,6479,0,-.127E-5,0
ASTRA 1M,2008-057A,2026-06-06T22:07:11.697888,1.00273972,.00050661,0.2691,82.3105,19.8207,144.4034,0,U,33436,999,4563,0,.135E-5,0
EUTELSAT HOTBIRD 13C,2008-065A,2026-06-06T21:47:18.476736,1.00271902,.00037777,2.9231,79.3131,357.8241,94.7113,0,U,33459,999,4724,0,-.269E-5,0
EXPRESS-AM44,2009-007A,2026-06-06T21:58:35.024160,1.00272108,.00044289,3.4368,78.5178,351.8246,143.6366,0,U,33595,999,5218,0,-.75E-6,0
NSS-9,2009-008A,2026-06-06T19:28:31.711296,1.00271213,.00022754,1.2341,82.7601,342.8992,304.7643,0,U,33749,999,6341,0,.85E-6,0
TELSTAR 11N,2009-009A,2026-06-06T21:50:55.630176,1.00271676,.00025954,0.0183,0.4897,64.7848,120.2235,0,U,34111,999,4614,0,-.237E-5,0
WGS F2 (USA 204),2009-017A,2026-06-06T22:04:28.166016,1.00271599,.0000511,0.0159,334.1635,247.8660,61.9417,0,U,34713,999,4551,0,.82E-6,0
SES-7 (PROTOSTAR 2),2009-027A,2026-06-06T22:32:30.643584,1.00273201,.00004955,0.0595,79.0148,322.4950,300.2315,0,U,34941,999,6252,0,-.331E-5,0
MEASAT-3A,2009-032A,2026-06-06T21:04:35.103648,1.00272124,.00031686,0.0223,354.5870,78.6574,298.1959,0,U,35362,999,792,0,-.97E-6,0
GOES 14,2009-033A,2026-06-06T15:13:38.481888,1.00114764,.00020467,1.6621,83.1711,2.3886,185.7647,0,U,35491,999,648,0,-.234E-5,0
FM-5,2009-034A,2026-06-06T21:37:04.457856,1.00272602,.00005635,0.0158,291.7916,21.6762,179.9617,0,U,35493,999,4654,0,-.187E-5,0
TERRESTAR-1,2009-035A,2026-06-06T16:22:04.872576,1.00273426,.00027803,5.1760,48.8051,22.2788,318.5272,0,U,35496,999,6202,0,-.44E-6,0
ASIASAT 5,2009-042A,2026-06-06T22:30:23.347872,1.00272387,.00014978,0.0100,41.7949,14.4077,277.2515,0,U,35696,999,6160,0,-.293E-5,0
JCSAT-12 (JCSAT-RA),2009-044A,2026-06-06T22:39:22.485600,1.00272306,.00002356,0.0100,334.6838,103.4604,289.0956,0,U,35755,999,6150,0,-.314E-5,0
OPTUS D3,2009-044B,2026-06-06T21:03:27.711648,1.00270950,.00032371,0.8658,269.7342,169.8474,287.7210,0,U,35756,999,6146,0,-.132E-5,0
NIMIQ 5,2009-050A,2026-06-06T21:40:56.587008,1.00271980,.00029213,0.0231,65.7265,9.9124,72.2162,0,U,35873,999,6124,0,-.243E-5,0
AMAZONAS 2,2009-054A,2026-06-06T21:41:11.562720,1.00205257,.00061508,1.7880,83.1753,31.0781,34.3748,0,U,35942,999,6108,0,-.24E-5,0
COMSATBW-1,2009-054B,2026-06-06T21:41:55.411584,1.00271685,.00030689,0.0557,74.8973,5.5427,203.3610,0,U,35943,999,6120,0,.38E-6,0
NSS-12,2009-058A,2026-06-06T22:04:28.114176,1.00270391,.00049758,0.0641,63.1093,344.2381,236.1059,0,U,36032,999,6081,0,.85E-6,0
THOR 6,2009-058B,2026-06-06T22:01:27.248736,1.00271899,.00022077,0.0387,114.4781,346.6684,123.6979,0,U,36033,999,6090,0,.4E-7,0
INTELSAT 14 (IS-14),2009-064A,2026-06-06T21:48:48.332736,1.00271694,.00028395,0.0149,327.4978,123.4083,86.6298,0,U,36097,999,6050,0,-.26E-5,0
EUTELSAT 36B,2009-065A,2026-06-06T22:16:02.224128,1.00270413,.00061503,0.4644,80.9900,353.8188,205.0334,0,U,36101,999,6060,0,.126E-5,0
INTELSAT 15 (IS-15),2009-067A,2026-06-06T22:25:53.778144,1.00271975,.00023764,0.0155,330.3465,108.1154,238.5127,0,U,36106,999,4112,0,-.171E-5,0
WGS F3 (USA 211),2009-068A,2026-06-06T16:16:35.399136,1.00269883,.00005342,0.3361,85.8736,327.7805,315.6122,0,U,36108,999,4648,0,.78E-6,0
DIRECTV 12,2009-075A,2026-06-06T21:32:19.913280,1.00271396,.00002896,0.0416,138.1445,275.7524,61.7810,0,U,36131,999,4645,0,-.9E-6,0
BEIDOU-2 G1,2010-001A,2026-06-05T14:11:05.771328,1.00269061,.00025835,4.2662,60.4432,313.7615,233.0101,0,U,36287,999,6005,0,-.269E-5,0
SDO,2010-005A,2026-06-06T08:15:18.948384,1.00271136,.00013983,34.6287,86.5080,50.1694,139.9279,0,U,36395,999,5995,0,-.62E-6,0
INTELSAT 16 (IS-16),2010-006A,2026-06-06T21:39:56.683296,1.00271191,.00022046,0.0209,45.6090,43.7927,54.7170,0,U,36397,999,5955,0,-.231E-5,0
EWS-G2 (GOES 15),2010-008A,2026-06-06T22:19:46.864992,1.00275973,.00054671,1.2487,83.0327,36.8430,173.9937,0,U,36411,999,5953,0,.33E-6,0
ECHOSTAR 14,2010-010A,2026-06-06T14:37:04.252800,1.00271975,.00025391,0.0431,89.1333,1.9929,264.2678,0,U,36499,999,4644,0,.14E-6,0
